[
    {
        "Altitude(m)": 575742.0258202751,
        "Argument of Periapsis(deg)": -0.022603160782972403,
        "Eccentricity": 0.0,
        "Inclination(deg)": 97.0,
        "Latitude(deg)": 71.60975872074069,
        "Longitude(deg)": -63.89412294408553,
        "Mean Anomaly(deg)": 72.89354326918749,
        "RAAN(deg)": 60.005947053618506,
        "Satellite Name": "Starlink Shell 3 1706",
        "Satellite Number": 1706,
        "Semi-Major Axis(m)": 6938478.169268562,
        "Time(s)": 570
    },
    {
        "Altitude(m)": 575826.9241088212,
        "Argument of Periapsis(deg)": -0.02299970746337543,
        "Eccentricity": 0.0,
        "Inclination(deg)": 97.0,
        "Latitude(deg)": 72.18346538401022,
        "Longitude(deg)": -64.71823484035609,
        "Mean Anomaly(deg)": 73.51901946689253,
        "RAAN(deg)": 60.00605138789252,
        "Satellite Name": "Starlink Shell 3 1706",
        "Satellite Number": 1706,
        "Semi-Major Axis(m)": 6938478.169268562,
        "Time(s)": 580
    },
    {
        "Altitude(m)": 575909.0892865564,
        "Argument of Periapsis(deg)": -0.023396254143778456,
        "Eccentricity": 0.0,
        "Inclination(deg)": 97.0,
        "Latitude(deg)": 72.75382109848367,
        "Longitude(deg)": -65.59246149931597,
        "Mean Anomaly(deg)": 74.14449566459756,
        "RAAN(deg)": 60.006155722166525,
        "Satellite Name": "Starlink Shell 3 1706",
        "Satellite Number": 1706,
        "Semi-Major Axis(m)": 6938478.169268562,
        "Time(s)": 590
    },
    {
        "Altitude(m)": 575988.4746161854,
        "Argument of Periapsis(deg)": -0.023792800824181483,
        "Eccentricity": 0.0,
        "Inclination(deg)": 97.0,
        "Latitude(deg)": 73.32048782423819,
        "Longitude(deg)": -66.52160816401322,
        "Mean Anomaly(deg)": 74.7699718623026,
        "RAAN(deg)": 60.00626005644054,
        "Satellite Name": "Starlink Shell 3 1706",
        "Satellite Number": 1706,
        "Semi-Major Axis(m)": 6938478.169268562,
        "Time(s)": 600
    },
    {
        "Altitude(m)": 576065.0349809368,
        "Argument of Periapsis(deg)": -0.024189347504584503,
        "Eccentricity": 0.0,
        "Inclination(deg)": 97.0,
        "Latitude(deg)": 73.88308217629164,
        "Longitude(deg)": -67.51105739682558,
        "Mean Anomaly(deg)": 75.39544806000765,
        "RAAN(deg)": 60.00636439071455,
        "Satellite Name": "Starlink Shell 3 1706",
        "Satellite Number": 1706,
        "Semi-Major Axis(m)": 6938478.169268562,
        "Time(s)": 610
    },
    {
        "Altitude(m)": 576138.7269058909,
        "Argument of Periapsis(deg)": -0.02458589418498753,
        "Eccentricity": 0.0,
        "Inclination(deg)": 97.0,
        "Latitude(deg)": 74.44116812413152,
        "Longitude(deg)": -68.5668461193828,
        "Mean Anomaly(deg)": 76.02092425771274,
        "RAAN(deg)": 60.00646872498855,
        "Satellite Name": "Starlink Shell 3 1706",
        "Satellite Number": 1706,
        "Semi-Major Axis(m)": 6938478.169268562,
        "Time(s)": 620
    },
    {
        "Altitude(m)": 576209.5085785555,
        "Argument of Periapsis(deg)": -0.024982440865390556,
        "Eccentricity": 0.0,
        "Inclination(deg)": 97.0,
        "Latitude(deg)": 74.99424837238345,
        "Longitude(deg)": -69.6957539437222,
        "Mean Anomaly(deg)": 76.64640045541775,
        "RAAN(deg)": 60.00657305926256,
        "Satellite Name": "Starlink Shell 3 1706",
        "Satellite Number": 1706,
        "Semi-Major Axis(m)": 6938478.169268562,
        "Time(s)": 630
    },
    {
        "Altitude(m)": 576277.3398686299,
        "Argument of Periapsis(deg)": -0.025378987545793576,
        "Eccentricity": 0.0,
        "Inclination(deg)": 97.0,
        "Latitude(deg)": 75.5417541787335,
        "Longitude(deg)": -70.90539884075548,
        "Mean Anomaly(deg)": 77.27187665312277,
        "RAAN(deg)": 60.00667739353657,
        "Satellite Name": "Starlink Shell 3 1706",
        "Satellite Number": 1706,
        "Semi-Major Axis(m)": 6938478.169268562,
        "Time(s)": 640
    },
    {
        "Altitude(m)": 576342.1823469282,
        "Argument of Periapsis(deg)": -0.025775534226196602,
        "Eccentricity": 0.0,
        "Inclination(deg)": 97.0,
        "Latitude(deg)": 76.0830333286547,
        "Longitude(deg)": -72.20434479888063,
        "Mean Anomaly(deg)": 77.89735285082784,
        "RAAN(deg)": 60.006781727810576,
        "Satellite Name": "Starlink Shell 3 1706",
        "Satellite Number": 1706,
        "Semi-Major Axis(m)": 6938478.169268562,
        "Time(s)": 650
    },
    {
        "Altitude(m)": 576403.999303533,
        "Argument of Periapsis(deg)": -0.026172080906599626,
        "Eccentricity": 0.0,
        "Inclination(deg)": 97.0,
        "Latitude(deg)": 76.61733595181083,
        "Longitude(deg)": -73.60221580243463,
        "Mean Anomaly(deg)": 78.52282904853288,
        "RAAN(deg)": 60.00688606208459,
        "Satellite Name": "Starlink Shell 3 1706",
        "Satellite Number": 1706,
        "Semi-Major Axis(m)": 6938478.169268562,
        "Time(s)": 660
    },
    {
        "Altitude(m)": 576462.7557650941,
        "Argument of Periapsis(deg)": -0.026568627587002652,
        "Eccentricity": 0.0,
        "Inclination(deg)": 97.0,
        "Latitude(deg)": 77.14379783858102,
        "Longitude(deg)": -75.10981460287766,
        "Mean Anomaly(deg)": 79.14830524623794,
        "RAAN(deg)": 60.0069903963586,
        "Satellite Name": "Starlink Shell 3 1706",
        "Satellite Number": 1706,
        "Semi-Major Axis(m)": 6938478.169268562,
        "Time(s)": 670
    },
    {
        "Altitude(m)": 576518.4185113063,
        "Argument of Periapsis(deg)": -0.02696517426740568,
        "Eccentricity": 0.0,
        "Inclination(deg)": 97.0,
        "Latitude(deg)": 77.6614209081253,
        "Longitude(deg)": -76.73924186970923,
        "Mean Anomaly(deg)": 79.77378144394297,
        "RAAN(deg)": 60.0070947306326,
        "Satellite Name": "Starlink Shell 3 1706",
        "Satellite Number": 1706,
        "Semi-Major Axis(m)": 6938478.169268562,
        "Time(s)": 680
    },
    {
        "Altitude(m)": 576570.9560905516,
        "Argument of Periapsis(deg)": -0.0273617209478087,
        "Eccentricity": 0.0,
        "Inclination(deg)": 97.0,
        "Latitude(deg)": 78.16905051033523,
        "Longitude(deg)": -78.50400264334715,
        "Mean Anomaly(deg)": 80.39925764164802,
        "RAAN(deg)": 60.00719906490661,
        "Satellite Name": "Starlink Shell 3 1706",
        "Satellite Number": 1706,
        "Semi-Major Axis(m)": 6938478.169268562,
        "Time(s)": 690
    },
    {
        "Altitude(m)": 576620.3388346852,
        "Argument of Periapsis(deg)": -0.027758267628211725,
        "Eccentricity": 0.0,
        "Inclination(deg)": 97.0,
        "Latitude(deg)": 78.66534934263989,
        "Longitude(deg)": -80.41908545753999,
        "Mean Anomaly(deg)": 81.02473383935306,
        "RAAN(deg)": 60.00730339918062,
        "Satellite Name": "Starlink Shell 3 1706",
        "Satellite Number": 1706,
        "Semi-Major Axis(m)": 6938478.169268562,
        "Time(s)": 700
    },
    {
        "Altitude(m)": 576666.5388730122,
        "Argument of Periapsis(deg)": -0.028154814308614752,
        "Eccentricity": 0.0,
        "Inclination(deg)": 97.0,
        "Latitude(deg)": 79.14876797482401,
        "Longitude(deg)": -82.50099077378725,
        "Mean Anomaly(deg)": 81.65021003705807,
        "RAAN(deg)": 60.007407733454635,
        "Satellite Name": "Starlink Shell 3 1706",
        "Satellite Number": 1706,
        "Semi-Major Axis(m)": 6938478.169268562,
        "Time(s)": 710
    },
    {
        "Altitude(m)": 576709.5301453631,
        "Argument of Periapsis(deg)": -0.02855136098901778,
        "Eccentricity": 0.0,
        "Inclination(deg)": 97.0,
        "Latitude(deg)": 79.61751236833692,
        "Longitude(deg)": -84.76766880765742,
        "Mean Anomaly(deg)": 82.27568623476313,
        "RAAN(deg)": 60.00751206772864,
        "Satellite Name": "Starlink Shell 3 1706",
        "Satellite Number": 1706,
        "Semi-Major Axis(m)": 6938478.169268562,
        "Time(s)": 720
    },
    {
        "Altitude(m)": 576749.2884143421,
        "Argument of Periapsis(deg)": -0.028947907669420805,
        "Eccentricity": 0.0,
        "Inclination(deg)": 97.0,
        "Latitude(deg)": 80.06950944478956,
        "Longitude(deg)": -87.23831564472297,
        "Mean Anomaly(deg)": 82.9011624324682,
        "RAAN(deg)": 60.007616402002654,
        "Satellite Name": "Starlink Shell 3 1706",
        "Satellite Number": 1706,
        "Semi-Major Axis(m)": 6938478.169268562,
        "Time(s)": 730
    },
    {
        "Altitude(m)": 576785.7912767063,
        "Argument of Periapsis(deg)": -0.029344454349823825,
        "Eccentricity": 0.0,
        "Inclination(deg)": 97.0,
        "Latitude(deg)": 80.50237282019462,
        "Longitude(deg)": -89.93295757336521,
        "Mean Anomaly(deg)": 83.52663863017322,
        "RAAN(deg)": 60.00772073627665,
        "Satellite Name": "Starlink Shell 3 1706",
        "Satellite Number": 1706,
        "Semi-Major Axis(m)": 6938478.169268562,
        "Time(s)": 740
    },
    {
        "Altitude(m)": 576819.0181738934,
        "Argument of Periapsis(deg)": -0.029741001030226845,
        "Eccentricity": 0.0,
        "Inclination(deg)": 97.0,
        "Latitude(deg)": 80.91337240489038,
        "Longitude(deg)": -92.87172915454389,
        "Mean Anomaly(deg)": 84.15211482787828,
        "RAAN(deg)": 60.007825070550666,
        "Satellite Name": "Starlink Shell 3 1706",
        "Satellite Number": 1706,
        "Semi-Major Axis(m)": 6938478.169268562,
        "Time(s)": 750
    }
]